0 COSMOS 2251 DEB
1 33796U 93036AM  13282.81027035  .00007101  00000-0  26438-2 0  3359
2 33796 074.0490 206.4944 0081397 241.0701 209.6996 14.30352407241812
0 COSMOS 2251 DEB
1 33796U 93036AM  13284.13406373  .00008104  00000-0  30149-2 0  3361
2 33796 074.0491 204.0882 0081270 238.3031 186.3437 14.30366589242002
0 COSMOS 2251 DEB
1 33796U 93036AM  13285.45995954  .00006237  00000-0  23228-2 0  3371
2 33796 074.0493 201.6780 0081185 235.5811 173.8349 14.30384116242193
0 COSMOS 2251 DEB
1 33796U 93036AM  13286.79745358  .00005927  00000-0  22074-2 0  3384
2 33796 074.0496 199.2467 0081055 232.8089 221.1552 14.30399468242383
0 COSMOS 2251 DEB
1 33796U 93036AM  13287.84004519  .00007886  00000-0  29320-2 0  3396
2 33796 074.0498 197.3514 0081043 230.6467 189.9528 14.30412040242533
0 COSMOS 2251 DEB
1 33796U 93036AM  13289.17112568  .00008837  00000-0  32830-2 0  3407
2 33796 074.0500 194.9316 0080891 227.8357 204.4586 14.30433411242729
0 COSMOS 2251 DEB
1 33796U 93036AM  13290.43900613  .00008443  00000-0  31367-2 0  3412
2 33796 074.0500 192.6268 0080805 225.2079 253.5376 14.30449906242906
0 COSMOS 2251 DEB
1 33796U 93036AM  13291.47544206  .00007200  00000-0  26760-2 0  3421
2 33796 074.0497 190.7426 0080747 223.0648 190.8267 14.30463977243052
0 COSMOS 2251 DEB
1 33796U 93036AM  13292.81583922  .00006693  00000-0  24881-2 0  3436
2 33796 074.0492 188.3059 0080618 220.2695 253.5058 14.30480850243245
0 COSMOS 2251 DEB
1 33796U 93036AM  13293.85735654  .00007266  00000-0  26995-2 0  3448
2 33796 074.0489 186.4125 0080538 218.0883 217.0988 14.30490675243398
0 COSMOS 2251 DEB
1 33796U 93036AM  13295.13126299  .00007643  00000-0  28387-2 0  3457
2 33796 074.0487 184.0964 0080404 215.4134 297.5113 14.30504266243578
0 COSMOS 2251 DEB
1 33796U 93036AM  13296.17383142  .00007574  00000-0  28123-2 0  3466
2 33796 074.0486 182.2008 0080323 213.2734 266.5671 14.30519199243721
